ONEWEB-0706             
1 61611U 24188T   25274.05483493 -.00000627  00000+0 -18312-2 0  9997
2 61611  87.8740  87.9385 0002269  99.9671 260.1713 13.10374023 49446
ONEWEB-0707             
1 61612U 24188U   25273.98512736 -.00000330  00000+0 -98108-3 0  9995
2 61612  87.8755  87.9199 0002161 102.1969 257.9400 13.10376740 49371
ONEWEB-0708             
1 61613U 24188V   25273.39253468  .00000535  00000+0  14960-2 0  9993
2 61613  87.8754  88.0805 0002431  93.3348 266.8058 13.10375730 49274
