<?xml version="1.0" encoding="UTF-8"?>
<ndm xmlns:xsi="http://www.w3.org/2001/XMLSchema-instance" xsi:noNamespaceSchemaLocation="https://sanaregistry.org/r/ndmxml_unqualified/ndmxml-2.0.0-master-2.0.xsd">
<omm id="CCSDS_OMM_VERS" version="2.0">
<header><CREATION_DATE/><ORIGINATOR/></header><body><segment><metadata><OBJECT_NAME>ONEWEB-0706</OBJECT_NAME><OBJECT_ID>2024-188T</OBJECT_ID><CENTER_NAME>EARTH</CENTER_NAME><REF_FRAME>TEME</REF_FRAME><TIME_SYSTEM>UTC</TIME_SYSTEM><MEAN_ELEMENT_THEORY>SGP4</MEAN_ELEMENT_THEORY></metadata><data><meanElements><EPOCH>2025-10-01T01:18:57.737952</EPOCH><MEAN_MOTION>13.10374023</MEAN_MOTION><ECCENTRICITY>.0002269</ECCENTRICITY><INCLINATION>87.8740</INCLINATION><RA_OF_ASC_NODE>87.9385</RA_OF_ASC_NODE><ARG_OF_PERICENTER>99.9671</ARG_OF_PERICENTER><MEAN_ANOMALY>260.1713</MEAN_ANOMALY></meanElements><tleParameters><EPHEMERIS_TYPE>0</EPHEMERIS_TYPE><CLASSIFICATION_TYPE>U</CLASSIFICATION_TYPE><NORAD_CAT_ID>61611</NORAD_CAT_ID><ELEMENT_SET_NO>999</ELEMENT_SET_NO><REV_AT_EPOCH>4944</REV_AT_EPOCH><BSTAR>-.18312E-2</BSTAR><MEAN_MOTION_DOT>-.627E-5</MEAN_MOTION_DOT><MEAN_MOTION_DDOT>0</MEAN_MOTION_DDOT></tleParameters></data></segment></body></omm>
<omm id="CCSDS_OMM_VERS" version="2.0">
<header><CREATION_DATE/><ORIGINATOR/></header><body><segment><metadata><OBJECT_NAME>ONEWEB-0707</OBJECT_NAME><OBJECT_ID>2024-188U</OBJECT_ID><CENTER_NAME>EARTH</CENTER_NAME><REF_FRAME>TEME</REF_FRAME><TIME_SYSTEM>UTC</TIME_SYSTEM><MEAN_ELEMENT_THEORY>SGP4</MEAN_ELEMENT_THEORY></metadata><data><meanElements><EPOCH>2025-09-30T23:38:35.003904</EPOCH><MEAN_MOTION>13.10376740</MEAN_MOTION><ECCENTRICITY>.0002161</ECCENTRICITY><INCLINATION>87.8755</INCLINATION><RA_OF_ASC_NODE>87.9199</RA_OF_ASC_NODE><ARG_OF_PERICENTER>102.1969</ARG_OF_PERICENTER><MEAN_ANOMALY>257.9400</MEAN_ANOMALY></meanElements><tleParameters><EPHEMERIS_TYPE>0</EPHEMERIS_TYPE><CLASSIFICATION_TYPE>U</CLASSIFICATION_TYPE><NORAD_CAT_ID>61612</NORAD_CAT_ID><ELEMENT_SET_NO>999</ELEMENT_SET_NO><REV_AT_EPOCH>4937</REV_AT_EPOCH><BSTAR>-.98108E-3</BSTAR><MEAN_MOTION_DOT>-.33E-5</MEAN_MOTION_DOT><MEAN_MOTION_DDOT>0</MEAN_MOTION_DDOT></tleParameters></data></segment></body></omm>
<omm id="CCSDS_OMM_VERS" version="2.0">
<header><CREATION_DATE/><ORIGINATOR/></header><body><segment><metadata><OBJECT_NAME>ONEWEB-0708</OBJECT_NAME><OBJECT_ID>2024-188V</OBJECT_ID><CENTER_NAME>EARTH</CENTER_NAME><REF_FRAME>TEME</REF_FRAME><TIME_SYSTEM>UTC</TIME_SYSTEM><MEAN_ELEMENT_THEORY>SGP4</MEAN_ELEMENT_THEORY></metadata><data><meanElements><EPOCH>2025-09-30T09:25:14.996352</EPOCH><MEAN_MOTION>13.10375730</MEAN_MOTION><ECCENTRICITY>.00024315</ECCENTRICITY><INCLINATION>87.8754</INCLINATION><RA_OF_ASC_NODE>88.0805</RA_OF_ASC_NODE><ARG_OF_PERICENTER>93.3348</ARG_OF_PERICENTER><MEAN_ANOMALY>266.8058</MEAN_ANOMALY></meanElements><tleParameters><EPHEMERIS_TYPE>0</EPHEMERIS_TYPE><CLASSIFICATION_TYPE>U</CLASSIFICATION_TYPE><NORAD_CAT_ID>61613</NORAD_CAT_ID><ELEMENT_SET_NO>999</ELEMENT_SET_NO><REV_AT_EPOCH>4927</REV_AT_EPOCH><BSTAR>.14959967E-2</BSTAR><MEAN_MOTION_DOT>.535E-5</MEAN_MOTION_DOT><MEAN_MOTION_DDOT>0</MEAN_MOTION_DDOT></tleParameters></data></segment></body></omm>
</ndm>
